[{"line1":"1 43173U 18011E   22221.20035198  .00013738  00000-0  31591-3 0  9990","line2":"2 43173  34.9882 153.7456 0121296 299.8035  59.0669 15.34311823253222"},{"line1":"1 43174U 18012A   22221.38135091 -.00000163  00000-0  00000-0 0  9991","line2":"2 43174   0.0622  98.5503 0002553  43.2442 293.2458  1.00269803 16723"},{"line1":"1 43175U 18012B   22221.44764937 -.00000286  00000-0  00000-0 0  9992","line2":"2 43175   0.0185 329.1524 0001221 153.5985 308.8029  1.00270809 16930"},{"line1":"1 43176U 18012C   22220.75395453  .00001420  00000-0  17080-2 0  9997","line2":"2 43176  21.7186  74.4431 7548090  71.7331 351.5633  1.93518899 31324"},{"line1":"1 43177U 18012D   22220.97529757  .00017919  00000-0  13188-1 0  9992","line2":"2 43177  21.3224  62.8275 7446090  96.4746 344.5049  2.05777771 32012"},{"line1":"1 43179U 18013B   22221.63872272  .00000033  00000-0  14113-3 0  9992","line2":"2 43179  23.7961 222.8457 7759036 175.4156 202.8577  1.65993344 26070"},{"line1":"1 43180U 18014A   22221.47453615  .00001113  00000-0  54087-4 0  9998","line2":"2 43180  97.4261 129.3461 0001512  77.5705  36.8644 15.20471134250571"},{"line1":"1 43181U 18014B   22221.77159991  .00001072  00000-0  52251-4 0  9997","line2":"2 43181  97.4267 129.6859 0001806  88.4763 357.1199 15.20461853250631"},{"line1":"1 43182U 18014C   22221.18300762  .00002421  00000-0  20203-3 0  9997","line2":"2 43182  97.6401 124.0100 0012596 121.9886 238.2564 14.99446587246798"},{"line1":"1 43183U 18014D   22221.52822460  .00003492  00000-0  28946-3 0  9991","line2":"2 43183  97.6408 124.5590 0014058 123.5027 236.7541 14.99401673246856"},{"line1":"1 43184U 18014E   22221.64310958  .00002047  00000-0  17348-3 0  9998","line2":"2 43184  97.6425 124.5478 0013690 117.7690 242.4923 14.98999848246867"},{"line1":"1 43185U 18014F   22221.47431129  .00003546  00000-0  29544-3 0  9990","line2":"2 43185  97.6431 124.6033 0015214 121.0497 239.2222 14.99177362246844"},{"line1":"1 43186U 18014G   22221.53271026  .00001257  00000-0  11113-3 0  9996","line2":"2 43186  97.6522 126.2523 0011792 117.6345 242.6076 14.98052925246861"},{"line1":"1 43187U 18014H   22221.39932160  .00001289  00000-0  11384-3 0  9999","line2":"2 43187  97.6519 126.0705 0011788 118.0066 242.2350 14.98050764246846"},{"line1":"1 43188U 18014J   22221.39961952  .00001262  00000-0  11155-3 0  9998","line2":"2 43188  97.6523 126.1371 0011787 118.0939 242.1477 14.98050090246841"},{"line1":"1 43189U 18014K   22221.53400601  .00001296  00000-0  11438-3 0  9995","line2":"2 43189  97.6518 126.1904 0011841 117.6104 242.6323 14.98047647245419"},{"line1":"1 43191U 69082LJ  22221.43317390  .00000069  00000-0  89080-4 0  9996","line2":"2 43191  70.0125 228.5857 0019516 171.2876 188.8572 13.95661173252174"},{"line1":"1 43192U 18015A   22221.79551756  .00021237  00000-0  52112-3 0  9997","line2":"2 43192  97.5407   8.4571 0009512 198.1711 269.6632 15.40677345251658"},{"line1":"1 43193U 18015B   22221.27082820  .00035901  00000-0  80593-3 0  9999","line2":"2 43193  97.3515 337.0874 0004753 337.5403  22.5636 15.43283430251687"},{"line1":"1 43194U 18015C   22221.83445104  .00004254  00000-0  19422-3 0  9990","line2":"2 43194  97.5283 352.5253 0009784 267.7205 244.9801 15.21113350250736"},{"line1":"1 43195U 18015D   22221.85694715  .00007543  00000-0  25032-3 0  9995","line2":"2 43195  97.5408   3.7564 0013737 214.2752 300.0166 15.31447975251400"},{"line1":"1 43196U 18015E   22221.28758274  .00005694  00000-0  21343-3 0  9990","line2":"2 43196  97.5396   1.1990 0015884 227.4414 132.5484 15.27555793251222"},{"line1":"1 43197U 18015F   22221.79867472  .00005089  00000-0  18087-3 0  9997","line2":"2 43197  97.5389   2.6591 0015454 225.3676 240.7985 15.29364911251374"},{"line1":"1 43199U 18015H   22221.84161507  .00011953  00000-0  34664-3 0  9997","line2":"2 43199  97.5192   3.1798 0012633 204.7251 313.6213 15.35611815251637"},{"line1":"1 43200U 18015J   22221.35302452  .00350263  00000-0  13772-2 0  9998","line2":"2 43200  97.5740  60.4674 0009404 205.3674 154.7135 15.85972996253584"},{"line1":"1 43204U 18015K   22221.76520872  .00007714  00000-0  25282-3 0  9995","line2":"2 43204  97.5412   4.2765 0013218 215.9354 252.2628 15.31848296251025"},{"line1":"1 43207U 18018A   22221.31039358 -.00000027  00000-0  00000+0 0  9994","line2":"2 43207  55.5406 110.0258 0005952 349.2425  10.8018  1.86231773 30526"},{"line1":"1 43208U 18018B   22220.84010347 -.00000029  00000-0  00000-0 0  9992","line2":"2 43208  55.5403 110.0468 0007801 311.7551  48.2331  1.86231673 30517"},{"line1":"1 43210U 18018D   22219.24093462 -.00000021  00000-0  00000-0 0  9998","line2":"2 43210  55.3416 114.3142 0033508  90.2560 270.1731  1.79055378 29314"},{"line1":"1 43213U 99025EYM 22221.11363089  .00001271  00000-0  68843-3 0  9991","line2":"2 43213  98.8231 283.6654 0064867 128.2531 232.4503 14.13171466230618"},{"line1":"1 43214U 99025EYN 22221.14510599  .00001302  00000-0  70465-3 0  9993","line2":"2 43214  98.8241 283.6216 0065446 128.3366 232.3713 14.13156482230911"},{"line1":"1 43215U 18020A   22221.85378738 -.00000332  00000-0 -12622-4 0  9991","line2":"2 43215  97.4474 228.4329 0001751  82.8354  38.8328 15.19145472247358"},{"line1":"1 43226U 18022A   22221.60158625  .00000089  00000-0  00000-0 0  9999","line2":"2 43226   0.0887 266.5479 0000523 208.8250 281.9384  1.00271612 16301"},{"line1":"1 43227U 18022B   22221.44386137 -.00000155  00000-0  00000-0 0  9998","line2":"2 43227   8.1789 156.3773 4935163 160.0466 229.1434  1.88627856 30592"},{"line1":"1 43228U 18023A   22221.80991000 -.00000226  00000-0  00000+0 0  9999","line2":"2 43228   0.0385  53.8311 0004611  58.3678 107.6610  1.00270814 16389"},{"line1":"1 43229U 18023B   22221.30538258  .00057306 -88436-7  70736-3 0  9991","line2":"2 43229  26.8290 222.0824 4491816  62.5312 335.8782  6.66019448 87567"},{"line1":"1 43231U 18024A   22221.26299498 -.00000020  00000-0  00000-0 0  9999","line2":"2 43231   0.0456   7.9167 0002888 132.9196 219.1828  5.00115946 80591"},{"line1":"1 43232U 18024B   22220.91659286 -.00000019  00000-0  00000-0 0  9994","line2":"2 43232   0.0414   8.2177 0002857 132.6298 219.1716  5.00115845 80490"},{"line1":"1 43233U 18024C   22221.35596458 -.00000020  00000-0  00000-0 0  9997","line2":"2 43233   0.0400   7.2329 0002672 135.0925 217.6914  5.00115225 80511"},{"line1":"1 43234U 18024D   22221.40945753 -.00000020  00000-0  00000-0 0  9990","line2":"2 43234   0.0469  35.1339 0003543 115.4263 209.4578  5.00114956 80642"},{"line1":"1 43235U 18024E   22220.41930493 -.00000015  00000-0  00000-0 0  9990","line2":"2 43235   0.1096   8.9783 0008900 237.3019 113.6254  5.21348494 84095"},{"line1":"1 43236U 18025A   22221.77053621  .00004979  00000-0  21264-3 0  9991","line2":"2 43236  97.4839 342.8400 0007954 109.0906 251.1193 15.23316502244573"},{"line1":"1 43237U 18025B   22221.22835909  .00036214  00000-0  83173-3 0  9993","line2":"2 43237  97.2976 323.4698 0010454 117.1620 243.0695 15.42552742245050"},{"line1":"1 43241U 18027A   22221.55593840 -.00000118  00000-0  00000-0 0  9991","line2":"2 43241   0.4734 175.3200 1327582 340.4620 127.0772  1.19315736 19067"},{"line1":"1 43245U 18029A   22221.65923620 -.00000097  00000-0  00000+0 0  9996","line2":"2 43245  55.2102 348.6171 0001056 119.8454 279.1421  1.86232786 29683"},{"line1":"1 43246U 18029B   22221.59879236 -.00000097  00000-0  10000-3 0  9998","line2":"2 43246  55.2074 348.6485 0003314  14.6632  30.3758  1.86233032 29673"},{"line1":"1 43247U 18029C   22221.27459387  .00000449  00000-0  54319-3 0  9996","line2":"2 43247  54.9475 185.4685 5473722 340.6422   4.7431  4.70091310 74166"},{"line1":"1 43248U 18029D   22220.76613110 -.00000085  00000-0  00000-0 0  9998","line2":"2 43248  55.5581 354.2776 0095761  17.4551 342.8687  1.77723860 28310"},{"line1":"1 43249U 18030A   22221.44143570  .00000155  00000-0  48352-4 0  9998","line2":"2 43249  86.4023 158.7750 0002062  88.6464 271.4968 14.34218913228382"},{"line1":"1 43250U 18030B   22221.23846984  .00000159  00000-0  49580-4 0  9994","line2":"2 43250  86.4023 158.8419 0002152  90.5076 269.6366 14.34219276228359"},{"line1":"1 43251U 18030C   22221.60635331  .00000155  00000-0  48245-4 0  9991","line2":"2 43251  86.4024 158.7106 0002490  79.5627 280.5850 14.34217944228380"},{"line1":"1 43252U 18030D   22221.27653663  .00000165  00000-0  51831-4 0  9999","line2":"2 43252  86.4024 158.8630 0001949  92.6170 267.5249 14.34218158228397"},{"line1":"1 43253U 18030E   22221.68245566  .00000153  00000-0  47665-4 0  9991","line2":"2 43253  86.4024 158.6699 0002482 102.4012 257.7461 14.34219056228383"},{"line1":"1 43254U 18030F   22221.17502613  .00000152  00000-0  47323-4 0  9995","line2":"2 43254  86.4023 158.8977 0002394  91.2809 268.8661 14.34216389228320"},{"line1":"1 43255U 18030G   22221.28287998  .00000157  00000-0  49056-4 0  9994","line2":"2 43255  86.4025 158.8753 0002497  84.3109 275.8371 14.34219211228373"},{"line1":"1 43256U 18030H   22221.25116740  .00000168  00000-0  52835-4 0  9999","line2":"2 43256  86.4022 158.8291 0002310  85.9162 274.2298 14.34218505228330"},{"line1":"1 43257U 18030J   22221.28921371  .00000151  00000-0  46966-4 0  9997","line2":"2 43257  86.4025 158.8838 0002111  87.6919 272.4519 14.34218623228369"},{"line1":"1 43258U 18030K   22221.27017909  .00000159  00000-0  49688-4 0  9992","line2":"2 43258  86.4028 158.9271 0002282  92.8758 267.2699 14.34220287228295"},{"line1":"1 43259U 18031A   22221.78293156 -.00001091  00000-0 -14947-3 0  9997","line2":"2 43259  97.8980 297.2187 0002983 165.5687 194.5671 14.76515791235012"},{"line1":"1 43260U 18031B   22221.82907258  .00000269  00000-0  45749-4 0  9998","line2":"2 43260  97.8978 297.2294 0004337 266.7955  93.2750 14.76544005235010"},{"line1":"1 43261U 18031C   22221.29568996  .00001515  00000-0  21561-3 0  9992","line2":"2 43261  97.9110 299.2222 0004267 160.9051 199.2321 14.78264359235011"}]